{"fetched_at":"2026-04-05T12:57:33Z","count":17389,"tles":[{"name":"O3B FM4","line1":"1 39189U 13031B   26086.40408870 -.00000028  00000+0  00000+0 0  9990","line2":"2 39189   0.0535 345.5776 0005068  27.4764 346.9547  5.00115128232953","category":"Other"}]}